{
  "type": "FeatureCollection",
  "features": [
    {
      "type": "Feature",
      "properties": {
        "norad_id": 62876,
        "name": "QZS-6 (QZSS/PRN 200)",
        "group": "gnss",
        "lat": 0.02746070655439058,
        "lon": 152.31025783989597,
        "alt_km": 35788.494056847056,
        "timestamp": "2025-12-11T22:43:47.511901+00:00",
        "meta_object_name": "QZS-6 (QZSS/PRN 200)",
        "meta_object_id": "2025-023A",
        "meta_epoch": "2025-12-11T13:56:27.594816",
        "meta_mean_motion": 1.00274801,
        "meta_eccentricity": 0.00017453,
        "meta_inclination": 0.0282,
        "meta_ra_of_asc_node": 49.5878,
        "meta_arg_of_pericenter": 218.7273,
        "meta_mean_anomaly": 111.8201,
        "meta_ephemeris_type": 0,
        "meta_classification_type": "U",
        "meta_norad_cat_id": 62876,
        "meta_element_set_no": 999,
        "meta_rev_at_epoch": 307,
        "meta_bstar": 0,
        "meta_mean_motion_dot": -2.26e-06,
        "meta_mean_motion_ddot": 0,
        "tle_line1": "1 62876U 25023A   25345.58087494 -.00000226  00000+0  00000+0 0  9994",
        "tle_line2": "2 62876   0.0282  49.5878 0001745 218.7273 111.8201  1.00274801  3078"
      },
      "geometry": {
        "type": "Point",
        "coordinates": [
          152.31025783989597,
          0.02746070655439058
        ]
      }
    },
    {
      "type": "Feature",
      "properties": {
        "norad_id": 63130,
        "name": "COSMOS 2584 (704K)",
        "group": "gnss",
        "lat": 27.90989897929992,
        "lon": 93.48203691483671,
        "alt_km": 19146.022249641825,
        "timestamp": "2025-12-11T22:43:47.511913+00:00",
        "meta_object_name": "COSMOS 2584 (704K)",
        "meta_object_id": "2025-042A",
        "meta_epoch": "2025-12-08T03:39:29.178720",
        "meta_mean_motion": 2.13102925,
        "meta_eccentricity": 0.0007602,
        "meta_inclination": 64.9737,
        "meta_ra_of_asc_node": 79.3022,
        "meta_arg_of_pericenter": 215.9611,
        "meta_mean_anomaly": 144.0025,
        "meta_ephemeris_type": 0,
        "meta_classification_type": "U",
        "meta_norad_cat_id": 63130,
        "meta_element_set_no": 999,
        "meta_rev_at_epoch": 597,
        "meta_bstar": 0,
        "meta_mean_motion_dot": -1.2e-07,
        "meta_mean_motion_ddot": 0,
        "tle_line1": "1 63130U 25042A   25342.15242105 -.00000012  00000+0  00000+0 0  9994",
        "tle_line2": "2 63130  64.9737  79.3022 0007602 215.9611 144.0025  2.13102925  5976"
      },
      "geometry": {
        "type": "Point",
        "coordinates": [
          93.48203691483671,
          27.90989897929992
        ]
      }
    },
    {
      "type": "Feature",
      "properties": {
        "norad_id": 64202,
        "name": "GPS BIII-8  (PRN 21)",
        "group": "gnss",
        "lat": -43.8918318783395,
        "lon": -99.17785600603729,
        "alt_km": 20182.772283656315,
        "timestamp": "2025-12-11T22:43:47.511926+00:00",
        "meta_object_name": "GPS BIII-8  (PRN 21)",
        "meta_object_id": "2025-116A",
        "meta_epoch": "2025-12-11T15:10:15.119616",
        "meta_mean_motion": 2.00558341,
        "meta_eccentricity": 0.00055101,
        "meta_inclination": 55.105,
        "meta_ra_of_asc_node": 38.6853,
        "meta_arg_of_pericenter": 307.7864,
        "meta_mean_anomaly": 62.5671,
        "meta_ephemeris_type": 0,
        "meta_classification_type": "U",
        "meta_norad_cat_id": 64202,
        "meta_element_set_no": 999,
        "meta_rev_at_epoch": 411,
        "meta_bstar": 0,
        "meta_mean_motion_dot": -9.6e-07,
        "meta_mean_motion_ddot": 0,
        "tle_line1": "1 64202U 25116A   25345.63211944 -.00000096  00000+0  00000+0 0  9992",
        "tle_line2": "2 64202  55.1050  38.6853 0005510 307.7864  62.5671  2.00558341  4112"
      },
      "geometry": {
        "type": "Point",
        "coordinates": [
          -99.17785600603729,
          -43.8918318783395
        ]
      }
    },
    {
      "type": "Feature",
      "properties": {
        "norad_id": 65590,
        "name": "COSMOS 2596 (708K)",
        "group": "gnss",
        "lat": 27.243091321313862,
        "lon": 127.42794517973623,
        "alt_km": 19159.720360502542,
        "timestamp": "2025-12-11T22:43:47.511937+00:00",
        "meta_object_name": "COSMOS 2596 (708K)",
        "meta_object_id": "2025-206B",
        "meta_epoch": "2025-12-10T13:06:28.122048",
        "meta_mean_motion": 2.13100337,
        "meta_eccentricity": 0.00140136,
        "meta_inclination": 64.7453,
        "meta_ra_of_asc_node": 321.5499,
        "meta_arg_of_pericenter": 305.8933,
        "meta_mean_anomaly": 208.9804,
        "meta_ephemeris_type": 0,
        "meta_classification_type": "U",
        "meta_norad_cat_id": 65590,
        "meta_element_set_no": 999,
        "meta_rev_at_epoch": 189,
        "meta_bstar": 0,
        "meta_mean_motion_dot": -5.2e-07,
        "meta_mean_motion_ddot": 0,
        "tle_line1": "1 65590U 25206B   25344.54615882 -.00000052  00000+0  00000+0 0  9993",
        "tle_line2": "2 65590  64.7453 321.5499 0014013 305.8933 208.9804  2.13100337  1898"
      },
      "geometry": {
        "type": "Point",
        "coordinates": [
          127.42794517973623,
          27.243091321313862
        ]
      }
    }
  ]
}